{
    "links": {
        "self": "http://www.neowsapp.com/rest/v1/neo/3667138?api_key=iIulBulltgU6a56xZRHN4H3l9WmuAYTsLGpBGhQ2"
    },
    "id": "3667138",
    "neo_reference_id": "3667138",
    "name": "(2014 GK45)",
    "designation": "2014 GK45",
    "nasa_jpl_url": "http://ssd.jpl.nasa.gov/sbdb.cgi?sstr=3667138",
    "absolute_magnitude_h": 26.1,
    "estimated_diameter": {
        "kilometers": {
            "estimated_diameter_min": 0.0160160338,
            "estimated_diameter_max": 0.0358129403
        },
        "meters": {
            "estimated_diameter_min": 16.0160337979,
            "estimated_diameter_max": 35.8129403019
        },
        "miles": {
            "estimated_diameter_min": 0.0099518989,
            "estimated_diameter_max": 0.0222531225
        },
        "feet": {
            "estimated_diameter_min": 52.5460443254,
            "estimated_diameter_max": 117.4965270602
        }
    },
    "is_potentially_hazardous_asteroid": false,
    "close_approach_data": [
        {
            "close_approach_date": "2012-02-23",
            "close_approach_date_full": "2012-Feb-23 03:25",
            "epoch_date_close_approach": 1329967500000,
            "relative_velocity": {
                "kilometers_per_second": "13.7315390925",
                "kilometers_per_hour": "49433.5407329158",
                "miles_per_hour": "30716.0797959609"
            },
            "miss_distance": {
                "astronomical": "0.3630406968",
                "lunar": "141.2228310552",
                "kilometers": "54310114.964595816",
                "miles": "33746740.5818456208"
            },
            "orbiting_body": "Earth"
        },
        {
            "close_approach_date": "2014-04-05",
            "close_approach_date_full": "2014-Apr-05 21:44",
            "epoch_date_close_approach": 1396734240000,
            "relative_velocity": {
                "kilometers_per_second": "4.6992079149",
                "kilometers_per_hour": "16917.1484934869",
                "miles_per_hour": "10511.6581847447"
            },
            "miss_distance": {
                "astronomical": "0.0598300242",
                "lunar": "23.2738794138",
                "kilometers": "8950444.182368454",
                "miles": "5561548.1225105052"
            },
            "orbiting_body": "Earth"
        },
        {
            "close_approach_date": "2016-05-11",
            "close_approach_date_full": "2016-May-11 07:26",
            "epoch_date_close_approach": 1462951560000,
            "relative_velocity": {
                "kilometers_per_second": "14.255842188",
                "kilometers_per_hour": "51321.0318768684",
                "miles_per_hour": "31888.8933903797"
            },
            "miss_distance": {
                "astronomical": "0.3612954144",
                "lunar": "140.5439162016",
                "kilometers": "54049024.435007328",
                "miles": "33584506.4496560064"
            },
            "orbiting_body": "Earth"
        }
    ],
    "orbital_data": {
        "orbit_id": "13",
        "orbit_determination_date": "2017-04-06 08:41:37",
        "first_observation_date": "2014-04-07",
        "last_observation_date": "2014-05-06",
        "data_arc_in_days": 29,
        "observations_used": 49,
        "orbit_uncertainty": "7",
        "minimum_orbit_intersection": ".0597115",
        "jupiter_tisserand_invariant": "4.257",
        "epoch_osculation": "2459000.5",
        "eccentricity": ".3487188463367807",
        "semi_major_axis": "1.618186210401754",
        "inclination": "4.864343657913325",
        "ascending_node_longitude": "29.1035181313013",
        "orbital_period": "751.8672545961909",
        "perihelion_distance": "1.053894181952367",
        "perihelion_argument": "157.9447470640927",
        "aphelion_distance": "2.182478238851141",
        "perihelion_time": "2459000.247705272610",
        "mean_anomaly": ".1208007148938461",
        "mean_motion": ".4788079249352959",
        "equinox": "J2000",
        "orbit_class": {
            "orbit_class_type": "AMO",
            "orbit_class_description": "Near-Earth asteroid orbits similar to that of 1221 Amor",
            "orbit_class_range": "1.017 AU < q (perihelion) < 1.3 AU"
        }
    },
    "is_sentry_object": false
}